{
  "type": "FeatureCollection",
  "features": [
    {
      "type": "Feature",
      "properties": {
        "norad_id": 43719,
        "name": "HYSIS",
        "group": "resource",
        "lat": 28.25826405563278,
        "lon": -131.86720735793,
        "alt_km": 632.4367014444879,
        "timestamp": "2025-12-06T18:50:09.828538+00:00",
        "meta_object_name": "HYSIS",
        "meta_object_id": "2018-096A",
        "meta_epoch": "2025-12-06T06:47:06.633888",
        "meta_mean_motion": 14.78618316,
        "meta_eccentricity": 0.00015732,
        "meta_inclination": 98.0105,
        "meta_ra_of_asc_node": 43.2921,
        "meta_arg_of_pericenter": 63.7277,
        "meta_mean_anomaly": 296.4096,
        "meta_ephemeris_type": 0,
        "meta_classification_type": "U",
        "meta_norad_cat_id": 43719,
        "meta_element_set_no": 999,
        "meta_rev_at_epoch": 37891,
        "meta_bstar": 0.00038496159,
        "meta_mean_motion_dot": 2.767e-05,
        "meta_mean_motion_ddot": 0,
        "tle_line1": "1 43719U 18096A   25340.28271567  .00002767  00000+0  38496-3 0  9994",
        "tle_line2": "2 43719  98.0105  43.2921 0001573  63.7277 296.4096 14.78618316378917"
      },
      "geometry": {
        "type": "Point",
        "coordinates": [
          -131.86720735793,
          28.25826405563278
        ]
      }
    },
    {
      "type": "Feature",
      "properties": {
        "norad_id": 43783,
        "name": "KAZSTSAT",
        "group": "resource",
        "lat": -54.902782840220375,
        "lon": 26.96512163641813,
        "alt_km": 573.2103452611091,
        "timestamp": "2025-12-06T18:50:09.828549+00:00",
        "meta_object_name": "KAZSTSAT",
        "meta_object_id": "2018-099AB",
        "meta_epoch": "2025-12-06T07:52:16.758336",
        "meta_mean_motion": 14.99321431,
        "meta_eccentricity": 0.00062836,
        "meta_inclination": 97.4553,
        "meta_ra_of_asc_node": 15.7886,
        "meta_arg_of_pericenter": 355.5156,
        "meta_mean_anomaly": 4.601,
        "meta_ephemeris_type": 0,
        "meta_classification_type": "U",
        "meta_norad_cat_id": 43783,
        "meta_element_set_no": 999,
        "meta_rev_at_epoch": 38240,
        "meta_bstar": 0.00028933307,
        "meta_mean_motion_dot": 3.48e-05,
        "meta_mean_motion_ddot": 0,
        "tle_line1": "1 43783U 18099AB  25340.32797174  .00003480  00000+0  28933-3 0  9998",
        "tle_line2": "2 43783  97.4553  15.7886 0006283 355.5156   4.6010 14.99321431382409"
      },
      "geometry": {
        "type": "Point",
        "coordinates": [
          26.96512163641813,
          -54.902782840220375
        ]
      }
    },
    {
      "type": "Feature",
      "properties": {
        "norad_id": 43831,
        "name": "SAUDISAT 5A",
        "group": "resource",
        "lat": 24.397224822020842,
        "lon": -135.55845942099174,
        "alt_km": 484.6509360299315,
        "timestamp": "2025-12-06T18:50:09.828558+00:00",
        "meta_object_name": "SAUDISAT 5A",
        "meta_object_id": "2018-102A",
        "meta_epoch": "2025-12-06T07:08:20.924160",
        "meta_mean_motion": 15.25538435,
        "meta_eccentricity": 0.00118542,
        "meta_inclination": 97.3362,
        "meta_ra_of_asc_node": 40.6136,
        "meta_arg_of_pericenter": 95.9674,
        "meta_mean_anomaly": 264.2916,
        "meta_ephemeris_type": 0,
        "meta_classification_type": "U",
        "meta_norad_cat_id": 43831,
        "meta_element_set_no": 999,
        "meta_rev_at_epoch": 38624,
        "meta_bstar": 0.00041872001,
        "meta_mean_motion_dot": 0.00010573,
        "meta_mean_motion_ddot": 0,
        "tle_line1": "1 43831U 18102A   25340.29746440  .00010573  00000+0  41872-3 0  9991",
        "tle_line2": "2 43831  97.3362  40.6136 0011854  95.9674 264.2916 15.25538435386244"
      },
      "geometry": {
        "type": "Point",
        "coordinates": [
          -135.55845942099174,
          24.397224822020842
        ]
      }
    },
    {
      "type": "Feature",
      "properties": {
        "norad_id": 43833,
        "name": "SAUDISAT 5B",
        "group": "resource",
        "lat": -19.910841757975565,
        "lon": -138.85875300340834,
        "alt_km": 495.3159536327066,
        "timestamp": "2025-12-06T18:50:09.828569+00:00",
        "meta_object_name": "SAUDISAT 5B",
        "meta_object_id": "2018-102C",
        "meta_epoch": "2025-12-06T06:56:47.918400",
        "meta_mean_motion": 15.25893459,
        "meta_eccentricity": 0.00125253,
        "meta_inclination": 97.3456,
        "meta_ra_of_asc_node": 43.3327,
        "meta_arg_of_pericenter": 98.437,
        "meta_mean_anomaly": 261.8289,
        "meta_ephemeris_type": 0,
        "meta_classification_type": "U",
        "meta_norad_cat_id": 43833,
        "meta_element_set_no": 999,
        "meta_rev_at_epoch": 38635,
        "meta_bstar": 0.00038851129,
        "meta_mean_motion_dot": 9.912e-05,
        "meta_mean_motion_ddot": 0,
        "tle_line1": "1 43833U 18102C   25340.28944350  .00009912  00000+0  38851-3 0  9990",
        "tle_line2": "2 43833  97.3456  43.3327 0012525  98.4370 261.8289 15.25893459386357"
      },
      "geometry": {
        "type": "Point",
        "coordinates": [
          -138.85875300340834,
          -19.910841757975565
        ]
      }
    },
    {
      "type": "Feature",
      "properties": {
        "norad_id": 44622,
        "name": "GAOFEN-10R",
        "group": "resource",
        "lat": -13.084212208091245,
        "lon": -69.85249536339388,
        "alt_km": 623.3219339945335,
        "timestamp": "2025-12-06T18:50:09.828580+00:00",
        "meta_object_name": "GAOFEN-10R",
        "meta_object_id": "2019-066A",
        "meta_epoch": "2025-12-06T07:33:30.117024",
        "meta_mean_motion": 14.82758151,
        "meta_eccentricity": 0.00081989,
        "meta_inclination": 98.0272,
        "meta_ra_of_asc_node": 287.7963,
        "meta_arg_of_pericenter": 59.6333,
        "meta_mean_anomaly": 300.569,
        "meta_ephemeris_type": 0,
        "meta_classification_type": "U",
        "meta_norad_cat_id": 44622,
        "meta_element_set_no": 999,
        "meta_rev_at_epoch": 33379,
        "meta_bstar": 0.0004342361,
        "meta_mean_motion_dot": 3.456e-05,
        "meta_mean_motion_ddot": 0,
        "tle_line1": "1 44622U 19066A   25340.31493191  .00003456  00000+0  43424-3 0  9992",
        "tle_line2": "2 44622  98.0272 287.7963 0008198  59.6333 300.5690 14.82758151333795"
      },
      "geometry": {
        "type": "Point",
        "coordinates": [
          -69.85249536339388,
          -13.084212208091245
        ]
      }
    },
    {
      "type": "Feature",
      "properties": {
        "norad_id": 44804,
        "name": "CARTOSAT-3",
        "group": "resource",
        "lat": 82.45271575163868,
        "lon": -41.010753581511295,
        "alt_km": 491.3153709940116,
        "timestamp": "2025-12-06T18:50:09.828590+00:00",
        "meta_object_name": "CARTOSAT-3",
        "meta_object_id": "2019-081A",
        "meta_epoch": "2025-12-06T05:48:04.591584",
        "meta_mean_motion": 15.19287818,
        "meta_eccentricity": 0.00139149,
        "meta_inclination": 97.4593,
        "meta_ra_of_asc_node": 39.9072,
        "meta_arg_of_pericenter": 107.426,
        "meta_mean_anomaly": 252.8497,
        "meta_ephemeris_type": 0,
        "meta_classification_type": "U",
        "meta_norad_cat_id": 44804,
        "meta_element_set_no": 999,
        "meta_rev_at_epoch": 33417,
        "meta_bstar": 0.00039256063,
        "meta_mean_motion_dot": 8.238e-05,
        "meta_mean_motion_ddot": 0,
        "tle_line1": "1 44804U 19081A   25340.24171981  .00008238  00000+0  39256-3 0  9994",
        "tle_line2": "2 44804  97.4593  39.9072 0013914 107.4260 252.8497 15.19287818334172"
      },
      "geometry": {
        "type": "Point",
        "coordinates": [
          -41.010753581511295,
          82.45271575163868
        ]
      }
    },
    {
      "type": "Feature",
      "properties": {
        "norad_id": 44819,
        "name": "GAOFEN-12 01",
        "group": "resource",
        "lat": -59.53193854565488,
        "lon": 0.718669080976455,
        "alt_km": 633.6619287239582,
        "timestamp": "2025-12-06T18:50:09.828600+00:00",
        "meta_object_name": "GAOFEN-12 01",
        "meta_object_id": "2019-082A",
        "meta_epoch": "2025-12-06T07:45:19.206144",
        "meta_mean_motion": 14.80646211,
        "meta_eccentricity": 0.00011874,
        "meta_inclination": 97.8126,
        "meta_ra_of_asc_node": 346.7726,
        "meta_arg_of_pericenter": 277.9073,
        "meta_mean_anomaly": 82.2005,
        "meta_ephemeris_type": 0,
        "meta_classification_type": "U",
        "meta_norad_cat_id": 44819,
        "meta_element_set_no": 999,
        "meta_rev_at_epoch": 32555,
        "meta_bstar": 0.00014230492,
        "meta_mean_motion_dot": 1.042e-05,
        "meta_mean_motion_ddot": 0,
        "tle_line1": "1 44819U 19082A   25340.32313896  .00001042  00000+0  14230-3 0  9994",
        "tle_line2": "2 44819  97.8126 346.7726 0001187 277.9073  82.2005 14.80646211325558"
      },
      "geometry": {
        "type": "Point",
        "coordinates": [
          0.718669080976455,
          -59.53193854565488
        ]
      }
    }
  ]
}